{"type": "FeatureCollection", "features": [ {"type": "Feature", "properties": {"norad_id": 60989, "name": "SENTINEL-2C", "group": "resource", "lat": -61.694478145260284, "lon": -124.7869910505279, "alt_km": 796.9139997775137, "timestamp": "2025-12-25T03:55:55.964296+00:00", "meta": {"OBJECT_NAME": "SENTINEL-2C", "OBJECT_ID": "2024-157A", "EPOCH": "2025-12-24T20:05:14.530272", "MEAN_MOTION": 14.30817119, "ECCENTRICITY": 0.0001393, "INCLINATION": 98.5667, "RA_OF_ASC_NODE": 71.1444, "ARG_OF_PERICENTER": 103.542, "MEAN_ANOMALY": 256.5918, "EPHEMERIS_TYPE": 0, "CLASSIFICATION_TYPE": "U", "NORAD_CAT_ID": 60989, "ELEMENT_SET_NO": 999, "REV_AT_EPOCH": 6805, "BSTAR": 7.2468e-05, "MEAN_MOTION_DOT": 1.46e-06, "MEAN_MOTION_DDOT": 0}, "tle": {"line1": "1 60989U 24157A   25358.83697373  .00000146  00000+0  72468-4 0  9991", "line2": "2 60989  98.5667  71.1444 0001393 103.5420 256.5918 14.30817119 68057"}}, "geometry": {"type": "Point", "coordinates": [-124.7869910505279, -61.694478145260284]}}, {"type": "Feature", "properties": {"norad_id": 61735, "name": "IONOSFERA-M 1", "group": "resource", "lat": 32.02061887761572, "lon": 54.43684834774786, "alt_km": 814.4773264331625, "timestamp": "2025-12-25T03:55:55.964309+00:00", "meta": {"OBJECT_NAME": "IONOSFERA-M 1", "OBJECT_ID": "2024-199A", "EPOCH": "2025-12-24T20:29:23.752896", "MEAN_MOTION": 14.22716632, "ECCENTRICITY": 3.62e-05, "INCLINATION": 98.7403, "RA_OF_ASC_NODE": 228.6085, "ARG_OF_PERICENTER": 6.1011, "MEAN_ANOMALY": 354.0171, "EPHEMERIS_TYPE": 0, "CLASSIFICATION_TYPE": "U", "NORAD_CAT_ID": 61735, "ELEMENT_SET_NO": 999, "REV_AT_EPOCH": 10291, "BSTAR": 4.7736e-05, "MEAN_MOTION_DOT": 6.3e-07, "MEAN_MOTION_DDOT": 0}, "tle": {"line1": "1 61735U 24199A   25358.85374714  .00000063  00000+0  47736-4 0  9998", "line2": "2 61735  98.7403 228.6085 0000362   6.1011 354.0171 14.22716632102914"}}, "geometry": {"type": "Point", "coordinates": [54.43684834774786, 32.02061887761572]}}, {"type": "Feature", "properties": {"norad_id": 61736, "name": "IONOSFERA-M 2", "group": "resource", "lat": -29.521636147437615, "lon": -126.17440806138708, "alt_km": 822.7788873629224, "timestamp": "2025-12-25T03:55:55.964320+00:00", "meta": {"OBJECT_NAME": "IONOSFERA-M 2", "OBJECT_ID": "2024-199B", "EPOCH": "2025-12-24T21:19:15.701952", "MEAN_MOTION": 14.22718788, "ECCENTRICITY": 0.0001855, "INCLINATION": 98.7395, "RA_OF_ASC_NODE": 228.5552, "ARG_OF_PERICENTER": 94.8709, "MEAN_ANOMALY": 265.268, "EPHEMERIS_TYPE": 0, "CLASSIFICATION_TYPE": "U", "NORAD_CAT_ID": 61736, "ELEMENT_SET_NO": 999, "REV_AT_EPOCH": 10604, "BSTAR": 4.319e-05, "MEAN_MOTION_DOT": 5.3e-07, "MEAN_MOTION_DDOT": 0}, "tle": {"line1": "1 61736U 24199B   25358.88837618  .00000053  00000+0  43190-4 0  9998", "line2": "2 61736  98.7395 228.5552 0001855  94.8709 265.2680 14.22718788106049"}}, "geometry": {"type": "Point", "coordinates": [-126.17440806138708, -29.521636147437615]}}, {"type": "Feature", "properties": {"norad_id": 63772, "name": "BIOMASS", "group": "resource", "lat": 3.4824584500352023, "lon": -176.5023814518515, "alt_km": 671.336939469561, "timestamp": "2025-12-25T03:55:55.964331+00:00", "meta": {"OBJECT_NAME": "BIOMASS", "OBJECT_ID": "2025-090A", "EPOCH": "2025-12-24T18:05:52.747008", "MEAN_MOTION": 14.67536543, "ECCENTRICITY": 0.0001046, "INCLINATION": 98.0696, "RA_OF_ASC_NODE": 183.5887, "ARG_OF_PERICENTER": 84.267, "MEAN_ANOMALY": 275.8654, "EPHEMERIS_TYPE": 0, "CLASSIFICATION_TYPE": "U", "NORAD_CAT_ID": 63772, "ELEMENT_SET_NO": 999, "REV_AT_EPOCH": 3510, "BSTAR": 0.00022217, "MEAN_MOTION_DOT": 1.212e-05, "MEAN_MOTION_DDOT": 0}, "tle": {"line1": "1 63772U 25090A   25358.75408272  .00001212  00000+0  22217-3 0  9991", "line2": "2 63772  98.0696 183.5887 0001046  84.2670 275.8654 14.67536543 35103"}}, "geometry": {"type": "Point", "coordinates": [-176.5023814518515, 3.4824584500352023]}}, {"type": "Feature", "properties": {"norad_id": 64694, "name": "GOSAT-GW (IBUKI GW)", "group": "resource", "lat": -34.040563229113324, "lon": 108.9704620548322, "alt_km": 675.7716907579561, "timestamp": "2025-12-25T03:55:55.964341+00:00", "meta": {"OBJECT_NAME": "GOSAT-GW (IBUKI GW)", "OBJECT_ID": "2025-141A", "EPOCH": "2025-12-24T20:24:47.906208", "MEAN_MOTION": 14.6755852, "ECCENTRICITY": 0.0001437, "INCLINATION": 98.0439, "RA_OF_ASC_NODE": 294.1448, "ARG_OF_PERICENTER": 82.4456, "MEAN_ANOMALY": 277.6912, "EPHEMERIS_TYPE": 0, "CLASSIFICATION_TYPE": "U", "NORAD_CAT_ID": 64694, "ELEMENT_SET_NO": 999, "REV_AT_EPOCH": 2627, "BSTAR": 0.00018411, "MEAN_MOTION_DOT": 9.97e-06, "MEAN_MOTION_DDOT": 0}, "tle": {"line1": "1 64694U 25141A   25358.85055447  .00000997  00000+0  18411-3 0  9995", "line2": "2 64694  98.0439 294.1448 0001437  82.4456 277.6912 14.67558520 26274"}}, "geometry": {"type": "Point", "coordinates": [108.9704620548322, -34.040563229113324]}}, {"type": "Feature", "properties": {"norad_id": 64876, "name": "IONOSFERA-M 3", "group": "resource", "lat": -42.16899804274101, "lon": -31.461057962874378, "alt_km": 826.8603803228643, "timestamp": "2025-12-25T03:55:55.964352+00:00", "meta": {"OBJECT_NAME": "IONOSFERA-M 3", "OBJECT_ID": "2025-155A", "EPOCH": "2025-12-24T21:22:31.562112", "MEAN_MOTION": 14.21443871, "ECCENTRICITY": 0.0001853, "INCLINATION": 98.58, "RA_OF_ASC_NODE": 320.4138, "ARG_OF_PERICENTER": 40.3179, "MEAN_ANOMALY": 319.8136, "EPHEMERIS_TYPE": 0, "CLASSIFICATION_TYPE": "U", "NORAD_CAT_ID": 64876, "ELEMENT_SET_NO": 999, "REV_AT_EPOCH": 2164, "BSTAR": 5.3101e-05, "MEAN_MOTION_DOT": 7.3e-07, "MEAN_MOTION_DDOT": 0}, "tle": {"line1": "1 64876U 25155A   25358.89064308  .00000073  00000+0  53101-4 0  9993", "line2": "2 64876  98.5800 320.4138 0001853  40.3179 319.8136 14.21443871 21644"}}, "geometry": {"type": "Point", "coordinates": [-31.461057962874378, -42.16899804274101]}}, {"type": "Feature", "properties": {"norad_id": 64877, "name": "IONOSFERA-M 4", "group": "resource", "lat": 41.26992235033334, "lon": 148.21238691445694, "alt_km": 817.0806200169754, "timestamp": "2025-12-25T03:55:55.964362+00:00", "meta": {"OBJECT_NAME": "IONOSFERA-M 4", "OBJECT_ID": "2025-155B", "EPOCH": "2025-12-24T20:31:38.706240", "MEAN_MOTION": 14.21445014, "ECCENTRICITY": 0.0001285, "INCLINATION": 98.58, "RA_OF_ASC_NODE": 320.2988, "ARG_OF_PERICENTER": 51.8448, "MEAN_ANOMALY": 308.2845, "EPHEMERIS_TYPE": 0, "CLASSIFICATION_TYPE": "U", "NORAD_CAT_ID": 64877, "ELEMENT_SET_NO": 999, "REV_AT_EPOCH": 2163, "BSTAR": 5.7005e-05, "MEAN_MOTION_DOT": 8.2e-07, "MEAN_MOTION_DDOT": 0}, "tle": {"line1": "1 64877U 25155B   25358.85530910  .00000082  00000+0  57005-4 0  9994", "line2": "2 64877  98.5800 320.2988 0001285  51.8448 308.2845 14.21445014 21630"}}, "geometry": {"type": "Point", "coordinates": [148.21238691445694, 41.26992235033334]}}, {"type": "Feature", "properties": {"norad_id": 64899, "name": "MICROCARB", "group": "resource", "lat": 32.51773230490314, "lon": 69.16486038982264, "alt_km": 649.1883565841563, "timestamp": "2025-12-25T03:55:55.964372+00:00", "meta": {"OBJECT_NAME": "MICROCARB", "OBJECT_ID": "2025-156A", "EPOCH": "2025-12-24T17:59:43.152000", "MEAN_MOTION": 14.72075752, "ECCENTRICITY": 0.0017633, "INCLINATION": 98.001, "RA_OF_ASC_NODE": 73.902, "ARG_OF_PERICENTER": 108.7626, "MEAN_ANOMALY": 251.5496, "EPHEMERIS_TYPE": 0, "CLASSIFICATION_TYPE": "U", "NORAD_CAT_ID": 64899, "ELEMENT_SET_NO": 999, "REV_AT_EPOCH": 2230, "BSTAR": 0.00011834, "MEAN_MOTION_DOT": 6.96e-06, "MEAN_MOTION_DDOT": 0}, "tle": {"line1": "1 64899U 25156A   25358.74980500  .00000696  00000+0  11834-3 0  9991", "line2": "2 64899  98.0010  73.9020 0017633 108.7626 251.5496 14.72075752 22306"}}, "geometry": {"type": "Point", "coordinates": [69.16486038982264, 32.51773230490314]}}, {"type": "Feature", "properties": {"norad_id": 64900, "name": "CO3D 3", "group": "resource", "lat": 62.88141178827369, "lon": 60.58190626441094, "alt_km": 498.206075309834, "timestamp": "2025-12-25T03:55:55.964382+00:00", "meta": {"OBJECT_NAME": "CO3D 3", "OBJECT_ID": "2025-156B", "EPOCH": "2025-12-24T19:45:13.239360", "MEAN_MOTION": 15.20197258, "ECCENTRICITY": 0.0001353, "INCLINATION": 97.4338, "RA_OF_ASC_NODE": 75.0166, "ARG_OF_PERICENTER": 71.4308, "MEAN_ANOMALY": 288.7074, "EPHEMERIS_TYPE": 0, "CLASSIFICATION_TYPE": "U", "NORAD_CAT_ID": 64900, "ELEMENT_SET_NO": 999, "REV_AT_EPOCH": 2304, "BSTAR": 0.00029961, "MEAN_MOTION_DOT": 6.423e-05, "MEAN_MOTION_DDOT": 0}, "tle": {"line1": "1 64900U 25156B   25358.82306990  .00006423  00000+0  29961-3 0  9992", "line2": "2 64900  97.4338  75.0166 0001353  71.4308 288.7074 15.20197258 23040"}}, "geometry": {"type": "Point", "coordinates": [60.58190626441094, 62.88141178827369]}}, {"type": "Feature", "properties": {"norad_id": 64901, "name": "CO3D 4", "group": "resource", "lat": 62.104954322501555, "lon": 61.073913280452096, "alt_km": 499.2165802476284, "timestamp": "2025-12-25T03:55:55.964392+00:00", "meta": {"OBJECT_NAME": "CO3D 4", "OBJECT_ID": "2025-156C", "EPOCH": "2025-12-24T19:45:26.064576", "MEAN_MOTION": 15.20220343, "ECCENTRICITY": 0.000145, "INCLINATION": 97.4335, "RA_OF_ASC_NODE": 75.0171, "ARG_OF_PERICENTER": 158.2186, "MEAN_ANOMALY": 201.9111, "EPHEMERIS_TYPE": 0, "CLASSIFICATION_TYPE": "U", "NORAD_CAT_ID": 64901, "ELEMENT_SET_NO": 999, "REV_AT_EPOCH": 2304, "BSTAR": 0.00023696, "MEAN_MOTION_DOT": 5.068e-05, "MEAN_MOTION_DDOT": 0}, "tle": {"line1": "1 64901U 25156C   25358.82321834  .00005068  00000+0  23696-3 0  9990", "line2": "2 64901  97.4335  75.0171 0001450 158.2186 201.9111 15.20220343 23041"}}, "geometry": {"type": "Point", "coordinates": [61.073913280452096, 62.104954322501555]}}]}